[{"OBJECT_NAME":"STARLINK-34831","OBJECT_ID":"2025-189Y","EPOCH":"2026-03-09T14:27:04.909824","MEAN_MOTION":15.30195782,"ECCENTRICITY":0.0001056,"INCLINATION":53.1574,"RA_OF_ASC_NODE":207.1267,"ARG_OF_PERICENTER":76.9728,"MEAN_ANOMALY":283.139,"EPHEMERIS_TYPE":0,"CLASSIFICATION_TYPE":"U","NORAD_CAT_ID":65345,"ELEMENT_SET_NO":999,"REV_AT_EPOCH":3110,"BSTAR":0.0014582,"MEAN_MOTION_DOT":0.00043074,"MEAN_MOTION_DDOT":0},{"OBJECT_NAME":"COSMOS 2251 DEB","OBJECT_ID":"1993-036BN","EPOCH":"2026-03-09T17:54:27.582912","MEAN_MOTION":15.31852549,"ECCENTRICITY":0.0043021,"INCLINATION":74.0291,"RA_OF_ASC_NODE":318.0178,"ARG_OF_PERICENTER":323.0874,"MEAN_ANOMALY":36.7369,"EPHEMERIS_TYPE":0,"CLASSIFICATION_TYPE":"U","NORAD_CAT_ID":33821,"ELEMENT_SET_NO":999,"REV_AT_EPOCH":76330,"BSTAR":0.0011195846,"MEAN_MOTION_DOT":0.00035571,"MEAN_MOTION_DDOT":0}]
